*******************************************************************************
Ephemeris / WWW_USER Fri Mar  7 11:18:41 2025 Pasadena, USA      / Horizons    
*******************************************************************************
Target body name: (2018 VC)                       {source: JPL#21}
Center body name: Earth (399)                     {source: DE441}
Center-site name: Mauna Kea
*******************************************************************************
Start time      : A.D. 2018-Sep-03 04:45:00.0000 UT      
Stop  time      : A.D. 2018-Sep-03 15:57:00.0000 UT      
Step-size       : 1 minutes
*******************************************************************************
Target pole/equ : undefined
Target radii    : undefined                                                    
Center geodetic : 204.5278, 19.8260847, 4.21024   {E-lon(deg),Lat(deg),Alt(km)}
Center cylindric: 204.5278, 6006.35451, 2151.0229 {E-lon(deg),Dxy(km),Dz(km)}
Center pole/equ : ITRF93                          {East-longitude positive}
Center radii    : 6378.137, 6378.137, 6356.752 km {Equator_a, b, pole_c}       
Target primary  : Sun
Vis. interferer : MOON (R_eq= 1737.400) km        {source: DE441}
Rel. light bend : Sun                             {source: DE441}
Rel. lght bnd GM: 1.3271E+11 km^3/s^2                                          
Small-body perts: Yes                             {source: SB441-N16}
Atmos refraction: NO (AIRLESS)
RA format       : HMS
Time format     : CAL 
Calendar mode   : Mixed Julian/Gregorian
RTS-only print  : NO       
EOP file        : eop.250306.p250602                                           
EOP coverage    : DATA-BASED 1962-JAN-20 TO 2025-MAR-06. PREDICTS-> 2025-JUN-01
Units conversion: 1 au= 149597870.700 km, c= 299792.458 km/s, 1 day= 86400.0 s 
Table cut-offs 1: Elevation (-90.0deg=NO ),Airmass (>38.000=NO), Daylight (YES)
Table cut-offs 2: Solar elongation (  0.0,180.0=NO ),Local Hour Angle( 0.0=NO )
Table cut-offs 3: RA/DEC angular rate (     0.0=NO )                           
*******************************************************************************
Initial IAU76/J2000 heliocentric ecliptic osculating elements (au, days, deg.):
  EPOCH=  2458962.5 ! 2020-Apr-23.00 (TDB)         Residual RMS= .087367       
   EC= .1691367762722357   QR= .9358500167919792   TP= 2458809.0997793972      
   OM= 36.58853997425776   W=  304.3228784920618   IN= 3.701146998496158       
  Equivalent ICRF heliocentric cartesian coordinates (au, au/d):
   X=-6.479543737333916E-01  Y= 9.538692942598190E-01  Z= 5.016232001756915E-01
  VX=-1.316843360643849E-02 VY=-5.467047892625660E-03 VZ=-2.149198049185293E-03
Asteroid physical parameters (km, seconds, rotational period in hours):        
   GM= n.a.                RAD= n.a.               ROTPER= n.a.                
   H= 26.34                G= .150                 B-V= n.a.                   
                           ALBEDO= n.a.            STYP= n.a.                  
*******************************************************************************
 Date__(UT)__HR:MN     R.A._________(ICRF)_________DEC
******************************************************
$$SOE
 2018-Sep-03 08:51     13 52 32.613054 -29 32 15.51852
 2018-Sep-03 08:52     13 52 32.687316 -29 32 16.19880
 2018-Sep-03 08:53     13 52 32.761641 -29 32 16.87924
 2018-Sep-03 08:54     13 52 32.836030 -29 32 17.55984
 2018-Sep-03 08:55     13 52 32.910482 -29 32 18.24060
 2018-Sep-03 08:56     13 52 32.984998 -29 32 18.92152
 2018-Sep-03 08:57     13 52 33.059577 -29 32 19.60260
 2018-Sep-03 08:58     13 52 33.134219 -29 32 20.28385
 2018-Sep-03 08:59     13 52 33.208923 -29 32 20.96527
 2018-Sep-03 09:00     13 52 33.283691 -29 32 21.64686
 2018-Sep-03 09:01     13 52 33.358521 -29 32 22.32862
 2018-Sep-03 09:02     13 52 33.433414 -29 32 23.01055
 2018-Sep-03 09:03     13 52 33.508370 -29 32 23.69266
 2018-Sep-03 09:04     13 52 33.583387 -29 32 24.37494
 2018-Sep-03 09:05     13 52 33.658468 -29 32 25.05740
 2018-Sep-03 09:06     13 52 33.733610 -29 32 25.74004
 2018-Sep-03 09:07     13 52 33.808814 -29 32 26.42287
 2018-Sep-03 09:08     13 52 33.884080 -29 32 27.10588
 2018-Sep-03 09:09     13 52 33.959408 -29 32 27.78907
 2018-Sep-03 09:10     13 52 34.034797 -29 32 28.47245
 2018-Sep-03 09:11     13 52 34.110248 -29 32 29.15602
 2018-Sep-03 09:12     13 52 34.185760 -29 32 29.83978
 2018-Sep-03 09:13     13 52 34.261334 -29 32 30.52373
 2018-Sep-03 09:14     13 52 34.336968 -29 32 31.20788
 2018-Sep-03 09:15     13 52 34.412664 -29 32 31.89222
 2018-Sep-03 09:16     13 52 34.488420 -29 32 32.57676
 2018-Sep-03 09:17     13 52 34.564237 -29 32 33.26150
 2018-Sep-03 09:18     13 52 34.640115 -29 32 33.94644
 2018-Sep-03 09:19     13 52 34.716053 -29 32 34.63158
 2018-Sep-03 09:20     13 52 34.792051 -29 32 35.31693
 2018-Sep-03 09:21     13 52 34.868110 -29 32 36.00249
 2018-Sep-03 09:22     13 52 34.944228 -29 32 36.68825
 2018-Sep-03 09:23     13 52 35.020407 -29 32 37.37422
 2018-Sep-03 09:24     13 52 35.096645 -29 32 38.06040
 2018-Sep-03 09:25     13 52 35.172942 -29 32 38.74680
 2018-Sep-03 09:26     13 52 35.249299 -29 32 39.43341
 2018-Sep-03 09:27     13 52 35.325715 -29 32 40.12024
 2018-Sep-03 09:28     13 52 35.402191 -29 32 40.80729
 2018-Sep-03 09:29     13 52 35.478725 -29 32 41.49455
 2018-Sep-03 09:30     13 52 35.555318 -29 32 42.18204
 2018-Sep-03 09:31     13 52 35.631970 -29 32 42.86975
 2018-Sep-03 09:32     13 52 35.708680 -29 32 43.55768
 2018-Sep-03 09:33     13 52 35.785449 -29 32 44.24584
 2018-Sep-03 09:34     13 52 35.862276 -29 32 44.93423
 2018-Sep-03 09:35     13 52 35.939161 -29 32 45.62285
 2018-Sep-03 09:36     13 52 36.016104 -29 32 46.31170
 2018-Sep-03 09:37     13 52 36.093104 -29 32 47.00079
 2018-Sep-03 09:38     13 52 36.170162 -29 32 47.69011
 2018-Sep-03 09:39     13 52 36.247278 -29 32 48.37966
 2018-Sep-03 09:40     13 52 36.324451 -29 32 49.06946
 2018-Sep-03 09:41     13 52 36.401681 -29 32 49.75949
 2018-Sep-03 09:42     13 52 36.478967 -29 32 50.44976
 2018-Sep-03 09:43     13 52 36.556311 -29 32 51.14028
 2018-Sep-03 09:44     13 52 36.633711 -29 32 51.83104
 2018-Sep-03 09:45     13 52 36.711167 -29 32 52.52205
 2018-Sep-03 09:46     13 52 36.788680 -29 32 53.21331
 2018-Sep-03 09:47     13 52 36.866249 -29 32 53.90481
 2018-Sep-03 09:48     13 52 36.943874 -29 32 54.59657
 2018-Sep-03 09:49     13 52 37.021554 -29 32 55.28857
 2018-Sep-03 09:50     13 52 37.099290 -29 32 55.98084
 2018-Sep-03 09:51  m  13 52 37.177082 -29 32 56.67335
 2018-Sep-03 09:52  m  13 52 37.254929 -29 32 57.36613
 2018-Sep-03 09:53  m  13 52 37.332830 -29 32 58.05916
 2018-Sep-03 09:54  m  13 52 37.410787 -29 32 58.75246
 2018-Sep-03 09:55  m  13 52 37.488798 -29 32 59.44601
 2018-Sep-03 09:56  m  13 52 37.566864 -29 33 00.13983
 2018-Sep-03 09:57  m  13 52 37.644984 -29 33 00.83392
 2018-Sep-03 09:58  m  13 52 37.723158 -29 33 01.52827
 2018-Sep-03 09:59  m  13 52 37.801386 -29 33 02.22289
 2018-Sep-03 10:00  m  13 52 37.879668 -29 33 02.91778
 2018-Sep-03 10:01  m  13 52 37.958004 -29 33 03.61294
 2018-Sep-03 10:02  m  13 52 38.036393 -29 33 04.30838
 2018-Sep-03 10:03  m  13 52 38.114835 -29 33 05.00408
 2018-Sep-03 10:04  m  13 52 38.193330 -29 33 05.70007
 2018-Sep-03 10:05  m  13 52 38.271878 -29 33 06.39633
 2018-Sep-03 10:06  m  13 52 38.350478 -29 33 07.09287
 2018-Sep-03 10:07  m  13 52 38.429132 -29 33 07.78969
 2018-Sep-03 10:08  m  13 52 38.507837 -29 33 08.48679
 2018-Sep-03 10:09  m  13 52 38.586594 -29 33 09.18418
 2018-Sep-03 10:10  m  13 52 38.665404 -29 33 09.88185
 2018-Sep-03 10:11  m  13 52 38.744265 -29 33 10.57980
 2018-Sep-03 10:12  m  13 52 38.823177 -29 33 11.27805
 2018-Sep-03 10:13  m  13 52 38.902141 -29 33 11.97658
 2018-Sep-03 10:14  m  13 52 38.981156 -29 33 12.67540
 2018-Sep-03 10:15  m  13 52 39.060222 -29 33 13.37452
 2018-Sep-03 10:16  m  13 52 39.139338 -29 33 14.07393
 2018-Sep-03 10:17  m  13 52 39.218505 -29 33 14.77363
 2018-Sep-03 10:18  m  13 52 39.297722 -29 33 15.47363
 2018-Sep-03 10:19  m  13 52 39.376990 -29 33 16.17393
 2018-Sep-03 10:20  m  13 52 39.456307 -29 33 16.87453
 2018-Sep-03 10:21  m  13 52 39.535674 -29 33 17.57543
 2018-Sep-03 10:22  m  13 52 39.615090 -29 33 18.27663
 2018-Sep-03 10:23  m  13 52 39.694556 -29 33 18.97813
 2018-Sep-03 10:24  m  13 52 39.774071 -29 33 19.67994
 2018-Sep-03 10:25  m  13 52 39.853634 -29 33 20.38206
 2018-Sep-03 10:26  m  13 52 39.933246 -29 33 21.08448
 2018-Sep-03 10:27  m  13 52 40.012907 -29 33 21.78722
 2018-Sep-03 10:28  m  13 52 40.092616 -29 33 22.49026
 2018-Sep-03 10:29  m  13 52 40.172373 -29 33 23.19361
 2018-Sep-03 10:30  m  13 52 40.252177 -29 33 23.89728
 2018-Sep-03 10:31  m  13 52 40.332029 -29 33 24.60127
 2018-Sep-03 10:32  m  13 52 40.411929 -29 33 25.30557
 2018-Sep-03 10:33  m  13 52 40.491876 -29 33 26.01018
 2018-Sep-03 10:34  m  13 52 40.571869 -29 33 26.71512
 2018-Sep-03 10:35  m  13 52 40.651910 -29 33 27.42037
 2018-Sep-03 10:36  m  13 52 40.731997 -29 33 28.12595
 2018-Sep-03 10:37  m  13 52 40.812130 -29 33 28.83185
 2018-Sep-03 10:38  m  13 52 40.892309 -29 33 29.53807
 2018-Sep-03 10:39  m  13 52 40.972534 -29 33 30.24462
 2018-Sep-03 10:40  m  13 52 41.052805 -29 33 30.95149
 2018-Sep-03 10:41  m  13 52 41.133121 -29 33 31.65870
 2018-Sep-03 10:42  m  13 52 41.213482 -29 33 32.36623
 2018-Sep-03 10:43  m  13 52 41.293888 -29 33 33.07409
 2018-Sep-03 10:44  m  13 52 41.374339 -29 33 33.78229
 2018-Sep-03 10:45  m  13 52 41.454834 -29 33 34.49081
 2018-Sep-03 10:46  m  13 52 41.535374 -29 33 35.19968
 2018-Sep-03 10:47  m  13 52 41.615957 -29 33 35.90887
 2018-Sep-03 10:48  m  13 52 41.696585 -29 33 36.61841
 2018-Sep-03 10:49  m  13 52 41.777256 -29 33 37.32828
 2018-Sep-03 10:50  m  13 52 41.857970 -29 33 38.03849
 2018-Sep-03 10:51  m  13 52 41.938728 -29 33 38.74905
 2018-Sep-03 10:52  m  13 52 42.019528 -29 33 39.45994
 2018-Sep-03 10:53  m  13 52 42.100371 -29 33 40.17118
